SL-16 R/B               
1 23705U 95058B   26193.21930830 -.00000013  00000+0  17966-4 0  9998
2 23705  71.0212 278.8033 0014606 286.6464  73.3055 14.15508045585471
SL-16 R/B               
1 24298U 96051B   26193.17224676  .00000138  00000+0  10137-3 0  9998
2 24298  70.7648 271.7742 0017566 302.0291  57.9122 14.12455271539220
ORBVIEW 2 (SEASTAR)     
1 24883U 97037A   26192.41459333  .00000124  00000+0  59287-4 0  9994
2 24883  98.8709   0.1077 0003179  68.4004 291.7519 14.35565701526223
SL-16 R/B               
1 25400U 98043G   26192.84957701 -.00000008  00000+0  15857-4 0  9994
2 25400  98.8378 147.2228 0010212  20.7516 339.4077 14.26072367456689
SL-16 R/B               
1 25407U 98045B   26193.16913845 -.00000256  00000+0 -10511-3 0  9997
2 25407  71.0116 279.7925 0008337 210.9569 149.1063 14.16206363444727
ISS (ZARYA)             
1 25544U 98067A   26193.15356419  .00004878  00000+0  96681-4 0  9995
2 25544  51.6303 176.5328 0006701 285.7692  74.2557 15.48987212575627
CZ-4B R/B               
1 25732U 99025C   26193.10469747  .00000009  00000+0  25246-4 0  9994
2 25732  98.6473 234.3146 0036807 348.7289  35.8539 14.18287345405809
OKEAN-O                 
1 25860U 99039A   26193.15187316  .00000281  00000+0  43506-4 0  9996
2 25860  97.9303 251.6616 0000933  81.5197 278.6121 14.80495232452801
SL-16 R/B               
1 25861U 99039B   26193.15048502  .00000253  00000+0  38747-4 0  9990
2 25861  97.9824 251.9407 0014092 208.7043 151.3395 14.81868951455294
DELTA 2 R/B             
1 25876U 99041E   26192.94888189  .00001312  00000+0  24930-3 0  9993
2 25876  51.7613 164.8684 0501306 355.1714   4.4482 14.12075728380584
HELIOS 1B               
1 25977U 99064A   26193.19321016  .00000701  00000+0  82672-4 0  9998
2 25977  98.1589  99.0547 0002086  57.7320 302.4097 14.88070775703772
TERRA                   
1 25994U 99068A   26193.14096647  .00000200  00000+0  49764-4 0  9994
2 25994  97.9443 241.6962 0003287 128.6540 242.9221 14.61122234413256
SL-16 R/B               
1 26070U 00006B   26193.00483773 -.00000237  00000+0 -96142-4 0  9993
2 26070  71.0002 196.4413 0017069 344.4104  15.6491 14.15838815366159
TITAN 4B R/B            
1 26474U 00047B   26193.16040264  .00001350  00000+0  88652-4 0  9999
2 26474  67.9872  50.2720 0045906 261.7588  97.8354 15.10324311411701
ENVISAT                 
1 27386U 02009A   26192.86250606  .00000019  00000+0  20086-4 0  9999
2 27386  98.3845 143.6323 0001338  83.7867 336.5198 14.39070297277037
IDEFIX & ARIANE 42P R/B 
1 27422U 02021B   26192.81024810  .00000087  00000+0  49517-4 0  9990
2 27422  98.5942 130.0269 0011680 176.2663 183.8609 14.31092847261771
AQUA                    
1 27424U 02022A   26193.23618441  .00000395  00000+0  88336-4 0  9993
2 27424  98.4293 163.0223 0000846 107.6363 309.2398 14.62194503286934
CZ-4B R/B               
1 27432U 02024C   26192.99432005  .00000002  00000+0  23597-4 0  9999
2 27432  98.8688 245.6517 0050634  31.0033  17.9338 14.14567830246816
MIDORI II (ADEOS-II)    
1 27597U 02056A   26192.84851306  .00000114  00000+0  62715-4 0  9998
2 27597  98.7892 152.3199 0001617  43.6524 316.4785 14.29362111228033
H-2A R/B                
1 27601U 02056E   26192.85358284  .00000121  00000+0  56699-4 0  9994
2 27601  98.3326 148.6307 0070692 150.7915 263.9999 14.33832769231908
CZ-4B R/B               
1 28059U 03049C   26192.98613462  .00000143  00000+0  44560-4 0  9999
2 28059  98.6908 192.8211 0047437 211.1841 148.6538 14.55114759204679
CZ-2C R/B               
1 28222U 04012C   26193.15106944  .00102383  00000+0  44260-3 0  9999
2 28222  97.7081 271.8195 0011580 200.8727 159.2071 15.84548107223841
SL-16 R/B               
1 28353U 04021B   26192.83976254  .00000097  00000+0  75275-4 0  9997
2 28353  71.0025 331.9498 0006427 227.8280 132.2297 14.14615883140397
CZ-4B R/B               
1 28415U 04035C   26193.03766096  .00004512  00000+0  15152-3 0  9998
2 28415  97.3361 225.8348 0029049 244.4773 115.3464 15.30964386198926
CZ-2C R/B               
1 28480U 04046B   26193.15318469  .00000043  00000+0  30834-4 0  9992
2 28480  98.1921 100.3709 0139966 146.3402 214.6768 14.27032478126256
ARIANE 5 R/B            
1 28499U 04049H   26192.44694273  .00000289  00000+0  38805-4 0  9994
2 28499  98.2738   5.6402 0082805 310.5973  48.8055 14.85476298164161
CZ-2D R/B               
1 28738U 05024B   26192.99756242  .00042114  00000+0  31676-3 0  9990
2 28738  97.3477 213.7144 0002000 202.0558 158.0619 15.72451238159231
ALOS (DAICHI)           
1 28931U 06002A   26192.86602976  .00000519  00000+0  94675-4 0  9994
2 28931  98.1336 148.3587 0000774  90.2748 269.8547 14.70098011 91720
H-2A R/B                
1 28932U 06002B   26192.96759463  .00005099  00000+0  24366-3 0  9997
2 28932  98.2582 351.0476 0050613 176.9533 183.2017 15.18413845113282
RESURS-DK 1             
1 29228U 06021A   26192.62498360  .00001011  00000+0  62717-4 0  9999
2 29228  69.9312 276.2899 0006915 275.2250  84.8127 15.13311404106271
